CCSDS_OMM_VERS = 2.0
CREATION_DATE  = 
ORIGINATOR     = 

OBJECT_NAME    = ALOS (DAICHI)
OBJECT_ID      = 2006-002A
CENTER_NAME    = EARTH
REF_FRAME      = TEME
TIME_SYSTEM    = UTC
MEAN_ELEMENT_THEORY = SGP/SGP4

EPOCH          = 2026-02-17T06:48:22.785984
MEAN_MOTION    = 14.69740309
ECCENTRICITY   = .00017712
INCLINATION    = 98.1186
RA_OF_ASC_NODE = 4.3471
ARG_OF_PERICENTER = 57.6728
MEAN_ANOMALY   = 302.4649

EPHEMERIS_TYPE = 0
CLASSIFICATION_TYPE = U
NORAD_CAT_ID   = 28931
ELEMENT_SET_NO = 999
REV_AT_EPOCH   = 7048
BSTAR          = .25474739E-3
MEAN_MOTION_DOT = .1469E-4
MEAN_MOTION_DDOT = 0

CCSDS_OMM_VERS = 2.0
CREATION_DATE  = 
ORIGINATOR     = 

OBJECT_NAME    = H-2A R/B
OBJECT_ID      = 2006-002B
CENTER_NAME    = EARTH
REF_FRAME      = TEME
TIME_SYSTEM    = UTC
MEAN_ELEMENT_THEORY = SGP/SGP4

EPOCH          = 2026-02-17T06:46:30.250848
MEAN_MOTION    = 15.15985223
ECCENTRICITY   = .00522843
INCLINATION    = 98.2372
RA_OF_ASC_NODE = 193.5641
ARG_OF_PERICENTER = 311.4843
MEAN_ANOMALY   = 48.1905

EPHEMERIS_TYPE = 0
CLASSIFICATION_TYPE = U
NORAD_CAT_ID   = 28932
ELEMENT_SET_NO = 999
REV_AT_EPOCH   = 9134
BSTAR          = .49461734E-3
MEAN_MOTION_DOT = .9755E-4
MEAN_MOTION_DDOT = 0

CCSDS_OMM_VERS = 2.0
CREATION_DATE  = 
ORIGINATOR     = 

OBJECT_NAME    = RESURS-DK 1
OBJECT_ID      = 2006-021A
CENTER_NAME    = EARTH
REF_FRAME      = TEME
TIME_SYSTEM    = UTC
MEAN_ELEMENT_THEORY = SGP/SGP4

EPOCH          = 2026-02-17T02:27:10.797984
MEAN_MOTION    = 15.12622011
ECCENTRICITY   = .00036155
INCLINATION    = 69.9331
RA_OF_ASC_NODE = 290.2762
ARG_OF_PERICENTER = 190.6791
MEAN_ANOMALY   = 169.4299

EPHEMERIS_TYPE = 0
CLASSIFICATION_TYPE = U
NORAD_CAT_ID   = 29228
ELEMENT_SET_NO = 999
REV_AT_EPOCH   = 8441
BSTAR          = .16075283E-3
MEAN_MOTION_DOT = .2708E-4
MEAN_MOTION_DDOT = 0

CCSDS_OMM_VERS = 2.0
CREATION_DATE  = 
ORIGINATOR     = 

OBJECT_NAME    = CZ-4B R/B
OBJECT_ID      = 2006-046C
CENTER_NAME    = EARTH
REF_FRAME      = TEME
TIME_SYSTEM    = UTC
MEAN_ELEMENT_THEORY = SGP/SGP4

EPOCH          = 2026-02-17T02:12:56.571552
MEAN_MOTION    = 15.16678546
ECCENTRICITY   = .00328448
INCLINATION    = 97.5634
RA_OF_ASC_NODE = 93.0551
ARG_OF_PERICENTER = 341.7048
MEAN_ANOMALY   = 18.3001

EPHEMERIS_TYPE = 0
CLASSIFICATION_TYPE = U
NORAD_CAT_ID   = 29507
ELEMENT_SET_NO = 999
REV_AT_EPOCH   = 5692
BSTAR          = .27564029E-3
MEAN_MOTION_DOT = .5401E-4
MEAN_MOTION_DDOT = 0

CCSDS_OMM_VERS = 2.0
CREATION_DATE  = 
ORIGINATOR     = 

OBJECT_NAME    = CZ-2C R/B
OBJECT_ID      = 2007-010B
CENTER_NAME    = EARTH
REF_FRAME      = TEME
TIME_SYSTEM    = UTC
MEAN_ELEMENT_THEORY = SGP/SGP4

EPOCH          = 2026-02-17T07:05:16.176768
MEAN_MOTION    = 14.20238834
ECCENTRICITY   = .00587593
INCLINATION    = 98.3971
RA_OF_ASC_NODE = 162.5976
ARG_OF_PERICENTER = 354.7088
MEAN_ANOMALY   = 5.3462

EPHEMERIS_TYPE = 0
CLASSIFICATION_TYPE = U
NORAD_CAT_ID   = 31114
ELEMENT_SET_NO = 999
REV_AT_EPOCH   = 97682
BSTAR          = .70998888E-4
MEAN_MOTION_DOT = .113E-5
MEAN_MOTION_DDOT = 0

CCSDS_OMM_VERS = 2.0
CREATION_DATE  = 
ORIGINATOR     = 

OBJECT_NAME    = COSMO-SKYMED 1
OBJECT_ID      = 2007-023A
CENTER_NAME    = EARTH
REF_FRAME      = TEME
TIME_SYSTEM    = UTC
MEAN_ELEMENT_THEORY = SGP/SGP4

EPOCH          = 2026-02-17T06:29:11.294304
MEAN_MOTION    = 14.96369841
ECCENTRICITY   = .00013918
INCLINATION    = 97.8856
RA_OF_ASC_NODE = 239.1410
ARG_OF_PERICENTER = 93.0607
MEAN_ANOMALY   = 267.0773

EPHEMERIS_TYPE = 0
CLASSIFICATION_TYPE = U
NORAD_CAT_ID   = 31598
ELEMENT_SET_NO = 999
REV_AT_EPOCH   = 1185
BSTAR          = .42141952E-3
MEAN_MOTION_DOT = .4713E-4
MEAN_MOTION_DDOT = 0

CCSDS_OMM_VERS = 2.0
CREATION_DATE  = 
ORIGINATOR     = 

OBJECT_NAME    = COSMOS 2428
OBJECT_ID      = 2007-029A
CENTER_NAME    = EARTH
REF_FRAME      = TEME
TIME_SYSTEM    = UTC
MEAN_ELEMENT_THEORY = SGP/SGP4

EPOCH          = 2026-02-17T00:05:55.630176
MEAN_MOTION    = 14.12938247
ECCENTRICITY   = .00079684
INCLINATION    = 70.9401
RA_OF_ASC_NODE = 246.7650
ARG_OF_PERICENTER = 301.0320
MEAN_ANOMALY   = 59.0018

EPHEMERIS_TYPE = 0
CLASSIFICATION_TYPE = U
NORAD_CAT_ID   = 31792
ELEMENT_SET_NO = 999
REV_AT_EPOCH   = 96117
BSTAR          = .15467186E-3
MEAN_MOTION_DOT = .24E-5
MEAN_MOTION_DDOT = 0

CCSDS_OMM_VERS = 2.0
CREATION_DATE  = 
ORIGINATOR     = 

OBJECT_NAME    = SL-16 R/B
OBJECT_ID      = 2007-029B
CENTER_NAME    = EARTH
REF_FRAME      = TEME
TIME_SYSTEM    = UTC
MEAN_ELEMENT_THEORY = SGP/SGP4

EPOCH          = 2026-02-16T22:32:07.598976
MEAN_MOTION    = 14.14836446
ECCENTRICITY   = .00022949
INCLINATION    = 70.9745
RA_OF_ASC_NODE = 216.0017
ARG_OF_PERICENTER = 282.6915
MEAN_ANOMALY   = 239.6855

EPHEMERIS_TYPE = 0
CLASSIFICATION_TYPE = U
NORAD_CAT_ID   = 31793
ELEMENT_SET_NO = 999
REV_AT_EPOCH   = 96243
BSTAR          = .51141601E-4
MEAN_MOTION_DOT = .51E-6
MEAN_MOTION_DDOT = 0

CCSDS_OMM_VERS = 2.0
CREATION_DATE  = 
ORIGINATOR     = 

OBJECT_NAME    = KORONAS-FOTON
OBJECT_ID      = 2009-003A
CENTER_NAME    = EARTH
REF_FRAME      = TEME
TIME_SYSTEM    = UTC
MEAN_ELEMENT_THEORY = SGP/SGP4

EPOCH          = 2026-02-17T03:24:48.802464
MEAN_MOTION    = 15.42775101
ECCENTRICITY   = .00093652
INCLINATION    = 82.4312
RA_OF_ASC_NODE = 297.2308
ARG_OF_PERICENTER = 224.6639
MEAN_ANOMALY   = 135.3854

EPHEMERIS_TYPE = 0
CLASSIFICATION_TYPE = U
NORAD_CAT_ID   = 33504
ELEMENT_SET_NO = 999
REV_AT_EPOCH   = 94257
BSTAR          = .2949888E-3
MEAN_MOTION_DOT = .1296E-3
MEAN_MOTION_DDOT = 0

CCSDS_OMM_VERS = 2.0
CREATION_DATE  = 
ORIGINATOR     = 

OBJECT_NAME    = CZ-2C R/B
OBJECT_ID      = 2011-030B
CENTER_NAME    = EARTH
REF_FRAME      = TEME
TIME_SYSTEM    = UTC
MEAN_ELEMENT_THEORY = SGP/SGP4

EPOCH          = 2026-02-16T20:55:23.359296
MEAN_MOTION    = 14.81138110
ECCENTRICITY   = .00540547
INCLINATION    = 97.8510
RA_OF_ASC_NODE = 5.5588
ARG_OF_PERICENTER = 58.9165
MEAN_ANOMALY   = 358.5472

EPHEMERIS_TYPE = 0
CLASSIFICATION_TYPE = U
NORAD_CAT_ID   = 37731
ELEMENT_SET_NO = 999
REV_AT_EPOCH   = 78701
BSTAR          = .2281434E-3
MEAN_MOTION_DOT = .1764E-4
MEAN_MOTION_DDOT = 0

CCSDS_OMM_VERS = 2.0
CREATION_DATE  = 
ORIGINATOR     = 

OBJECT_NAME    = H-2A R/B
OBJECT_ID      = 2012-025E
CENTER_NAME    = EARTH
REF_FRAME      = TEME
TIME_SYSTEM    = UTC
MEAN_ELEMENT_THEORY = SGP/SGP4

EPOCH          = 2026-02-17T05:58:29.484768
MEAN_MOTION    = 14.94983068
ECCENTRICITY   = .00453451
INCLINATION    = 98.4696
RA_OF_ASC_NODE = 13.6679
ARG_OF_PERICENTER = 21.8267
MEAN_ANOMALY   = 338.4870

EPHEMERIS_TYPE = 0
CLASSIFICATION_TYPE = U
NORAD_CAT_ID   = 38341
ELEMENT_SET_NO = 999
REV_AT_EPOCH   = 74516
BSTAR          = .44274899E-3
MEAN_MOTION_DOT = .487E-4
MEAN_MOTION_DDOT = 0

CCSDS_OMM_VERS = 2.0
CREATION_DATE  = 
ORIGINATOR     = 

OBJECT_NAME    = SHIJIAN-16 (SJ-16)
OBJECT_ID      = 2013-057A
CENTER_NAME    = EARTH
REF_FRAME      = TEME
TIME_SYSTEM    = UTC
MEAN_ELEMENT_THEORY = SGP/SGP4

EPOCH          = 2026-02-17T07:34:22.531584
MEAN_MOTION    = 14.92264058
ECCENTRICITY   = .00163948
INCLINATION    = 74.9697
RA_OF_ASC_NODE = 223.6551
ARG_OF_PERICENTER = 163.9932
MEAN_ANOMALY   = 196.1778

EPHEMERIS_TYPE = 0
CLASSIFICATION_TYPE = U
NORAD_CAT_ID   = 39358
ELEMENT_SET_NO = 999
REV_AT_EPOCH   = 66846
BSTAR          = .21207702E-3
MEAN_MOTION_DOT = .2141E-4
MEAN_MOTION_DDOT = 0

