ALOS (DAICHI)           
1 28931U 06002A   26048.28359706  .00001469  00000+0  25475-3 0  9996
2 28931  98.1186   4.3471 0001771  57.6728 302.4649 14.69740309 70488
H-2A R/B                
1 28932U 06002B   26048.28229457  .00009755  00000+0  49462-3 0  9994
2 28932  98.2372 193.5641 0052284 311.4843  48.1905 15.15985223 91346
RESURS-DK 1             
1 29228U 06021A   26048.10220831  .00002708  00000+0  16075-3 0  9997
2 29228  69.9331 290.2762 0003615 190.6791 169.4299 15.12622011 84410
CZ-4B R/B               
1 29507U 06046C   26048.09232143  .00005401  00000+0  27564-3 0  9999
2 29507  97.5634  93.0551 0032844 341.7048  18.3001 15.16678546 56924
CZ-2C R/B               
1 31114U 07010B   26048.29532612  .00000113  00000+0  70999-4 0  9990
2 31114  98.3971 162.5976 0058759 354.7088   5.3462 14.20238834976821
COSMO-SKYMED 1          
1 31598U 07023A   26048.27026961  .00004713  00000+0  42142-3 0  9991
2 31598  97.8856 239.1410 0001391  93.0607 267.0773 14.96369841 11858
COSMOS 2428             
1 31792U 07029A   26048.00411609  .00000240  00000+0  15467-3 0  9992
2 31792  70.9401 246.7650 0007968 301.0320  59.0018 14.12938247961172
SL-16 R/B               
1 31793U 07029B   26047.93897684  .00000051  00000+0  51142-4 0  9996
2 31793  70.9745 216.0017 0002294 282.6915 239.6855 14.14836446962437
KORONAS-FOTON           
1 33504U 09003A   26048.14223151  .00012960  00000+0  29499-3 0  9999
2 33504  82.4312 297.2308 0009365 224.6639 135.3854 15.42775101942572
CZ-2C R/B               
1 37731U 11030B   26047.87179814  .00001764  00000+0  22814-3 0  9997
2 37731  97.8510   5.5588 0054054  58.9165 358.5472 14.81138110787011
H-2A R/B                
1 38341U 12025E   26048.24895237  .00004870  00000+0  44275-3 0  9992
2 38341  98.4696  13.6679 0045345  21.8267 338.4870 14.94983068745160
SHIJIAN-16 (SJ-16)      
1 39358U 13057A   26048.31553856  .00002141  00000+0  21208-3 0  9993
2 39358  74.9697 223.6551 0016394 163.9932 196.1778 14.92264058668462
